*******************************************************************************
Ephemeris / WWW_USER Mon Mar 26 19:50:12 2018 Pasadena, USA      / Horizons    
*******************************************************************************
Target body name: Hyperion (607)                  {source: sat389}
Center body name: Saturn Barycenter (6)           {source: sat389}
Center-site name: BODY CENTER
*******************************************************************************
Start time      : A.D. 2000-Jan-01 00:00:00.0000 TDB
Stop  time      : A.D. 2001-Jan-01 00:00:00.0000 TDB
Step-size       : 7200 minutes
*******************************************************************************
Center geodetic : 0.00000000,0.00000000,0.0000000 {E-lon(deg),Lat(deg),Alt(km)}
Center cylindric: 0.00000000,0.00000000,0.0000000 {E-lon(deg),Dxy(km),Dz(km)}
Center radii    : (undefined)                                                  
Output units    : AU-D                                                         
Output type     : GEOMETRIC cartesian states
Output format   : 2 (position and velocity)
Reference frame : ICRF/J2000.0                                                 
Coordinate systm: Ecliptic and Mean Equinox of Reference Epoch                 
*******************************************************************************
JDTDB
   X     Y     Z
   VX    VY    VZ
*******************************************************************************
$$SOE
2451754.500000000 = A.D. 2000-Jul-29 00:00:00.0000 TDB 
   8.614314548352450E-03 -2.172082731775300E-04 -7.879972685639926E-04
   6.414356808143193E-06  2.966889337877076E-03 -1.493365772582017E-03
2451759.500000000 = A.D. 2000-Aug-03 00:00:00.0000 TDB 
  -1.325566378943871E-03  9.031866780461133E-03 -4.406023045500287E-03
  -2.846219099058451E-03  1.106238383457090E-04  2.408084659017256E-04
2451764.500000000 = A.D. 2000-Aug-08 00:00:00.0000 TDB 
  -1.092204625127619E-02  2.536627242669277E-03 -1.385857060710322E-04
  -5.490994792037122E-04 -2.212973136118799E-03  1.170574487745027E-03
2451769.500000000 = A.D. 2000-Aug-13 00:00:00.0000 TDB 
  -5.545595821597999E-03 -7.509397231764610E-03  4.355672937794808E-03
   2.524620936699203E-03 -1.191542891197991E-03  3.365044942886647E-04
2451774.500000000 = A.D. 2000-Aug-18 00:00:00.0000 TDB 
   7.574885336177440E-03 -4.107705974080718E-03  1.277571705148734E-03
   1.487084239341453E-03  2.568550176354458E-03 -1.447155516903973E-03
2451779.500000000 = A.D. 2000-Aug-23 00:00:00.0000 TDB 
   2.619092694783207E-03  8.156056283798299E-03 -4.376134493027358E-03
  -2.758398632444906E-03  1.168270350266069E-03 -3.004206322260048E-04
2451784.500000000 = A.D. 2000-Aug-28 00:00:00.0000 TDB 
  -9.531246455106467E-03  5.390575794068111E-03 -1.719326621631548E-03
  -1.410387125784510E-03 -1.880351623656478E-03  1.092772436839095E-03
2451789.500000000 = A.D. 2000-Sep-02 00:00:00.0000 TDB 
  -8.446477579275635E-03 -5.401612983194013E-03  3.596328546075472E-03
   1.847870402879430E-03 -1.843047026551245E-03  7.346809809182949E-04
2451794.500000000 = A.D. 2000-Sep-07 00:00:00.0000 TDB 
   4.937616794542684E-03 -6.857335456894181E-03  2.935206813739176E-03
   2.515292157106901E-03  1.681820245451992E-03 -1.107808898213212E-03
2451799.500000000 = A.D. 2000-Sep-12 00:00:00.0000 TDB 
   5.898273427113876E-03  6.037160307564682E-03 -3.650676007993270E-03
  -2.167303736472951E-03  2.113400874315440E-03 -8.373937007659791E-04
2451804.500000000 = A.D. 2000-Sep-17 00:00:00.0000 TDB 
  -7.165684891679625E-03  7.565317381100439E-03 -3.059246160800751E-03
  -2.119965641540264E-03 -1.326886334300581E-03  8.881242380518250E-04
2451809.500000000 = A.D. 2000-Sep-22 00:00:00.0000 TDB 
  -1.034365598971344E-02 -2.672004150739805E-03  2.420873364061479E-03
   1.007635857126803E-03 -2.209159514809132E-03  1.006268292405417E-03
2451814.500000000 = A.D. 2000-Sep-27 00:00:00.0000 TDB 
   1.248625497970272E-03 -8.325204794459681E-03  4.057426318374728E-03
   2.984374086345708E-03  5.581580030742142E-04 -5.914586863030726E-04
2451819.500000000 = A.D. 2000-Oct-02 00:00:00.0000 TDB 
   8.060908546024566E-03  2.794633755218309E-03 -2.244867934915522E-03
  -1.089222185675809E-03  2.791212571995296E-03 -1.290513665778586E-03
2451824.500000000 = A.D. 2000-Oct-07 00:00:00.0000 TDB 
  -4.061406114116361E-03  8.822622347058925E-03 -4.014715994609286E-03
  -2.627693338491150E-03 -5.817041337385545E-04  5.661589637154435E-04
2451829.500000000 = A.D. 2000-Oct-12 00:00:00.0000 TDB 
  -1.109049613450902E-02  2.890498193970642E-04  1.009261534129883E-03
   1.266335813519432E-04 -2.307014983753883E-03  1.147178978874021E-03
2451834.500000000 = A.D. 2000-Oct-17 00:00:00.0000 TDB 
  -2.655770797429878E-03 -8.354290350268263E-03  4.478414893732364E-03
   2.897754776979131E-03 -5.055499613244974E-04 -4.743000800255886E-05
2451839.500000000 = A.D. 2000-Oct-22 00:00:00.0000 TDB 
   8.585240472918951E-03 -1.064379127365893E-03 -3.585406203845200E-04
   3.425993212771376E-04  2.933243880225498E-03 -1.510983592477219E-03
2451844.500000000 = A.D. 2000-Oct-27 00:00:00.0000 TDB 
  -3.733251814123368E-04  8.991473345838856E-03 -4.483473963220060E-03
  -2.854155675576610E-03  3.472238195719998E-04  1.225327011415767E-04
2451849.500000000 = A.D. 2000-Nov-01 00:00:00.0000 TDB 
  -1.063033780079468E-02  3.256232728089113E-03 -5.314536403979665E-04
  -7.424540473393214E-04 -2.172260838521912E-03  1.169602129238072E-03
2451854.500000000 = A.D. 2000-Nov-06 00:00:00.0000 TDB 
  -6.006164492855237E-03 -7.117739430068232E-03  4.204037231721522E-03
   2.459046357024235E-03 -1.336972983697435E-03  4.164591302446641E-04
2451859.500000000 = A.D. 2000-Nov-11 00:00:00.0000 TDB 
   7.369723805051595E-03 -4.393797881872370E-03  1.442659218655896E-03
   1.633157815881919E-03  2.490954659666355E-03 -1.422491822446769E-03
2451864.500000000 = A.D. 2000-Nov-16 00:00:00.0000 TDB 
   3.122020471017421E-03  8.014656632302370E-03 -4.354941835102718E-03
  -2.683953986998434E-03  1.287349078910063E-03 -3.680834270749879E-04
2451869.500000000 = A.D. 2000-Nov-21 00:00:00.0000 TDB 
  -9.185840349471191E-03  5.804651649155809E-03 -1.963054365432355E-03
  -1.520792192113829E-03 -1.817837258881937E-03  1.072324045889476E-03
2451874.500000000 = A.D. 2000-Nov-26 00:00:00.0000 TDB 
  -8.666733531510668E-03 -5.037541640824842E-03  3.434830286415350E-03
   1.767257304449808E-03 -1.917762502743181E-03  7.804410298185951E-04
2451879.500000000 = A.D. 2000-Dec-01 00:00:00.0000 TDB 
   4.692183723207706E-03 -6.959418706522293E-03  3.011225809681533E-03
   2.585415668185408E-03  1.604887767811976E-03 -1.076003628083433E-03
2451884.500000000 = A.D. 2000-Dec-06 00:00:00.0000 TDB 
   6.102939760114946E-03  5.873328827665173E-03 -3.588260965305623E-03
  -2.097446134793357E-03  2.163906064959864E-03 -8.698351880324181E-04
2451889.500000000 = A.D. 2000-Dec-11 00:00:00.0000 TDB 
  -6.913981112585112E-03  7.721806490743037E-03 -3.163315554139434E-03
  -2.162600883432833E-03 -1.276900119373449E-03  8.670801106141423E-04
2451894.500000000 = A.D. 2000-Dec-16 00:00:00.0000 TDB 
  -1.036328943178989E-02 -2.460623181202499E-03  2.315575034214391E-03
   9.628351555070889E-04 -2.235009151823239E-03  1.023631350626348E-03
2451899.500000000 = A.D. 2000-Dec-21 00:00:00.0000 TDB 
   1.170556385386008E-03 -8.300039739954817E-03  4.051621978625657E-03
   3.001906743960860E-03  5.261460105923885E-04 -5.769223728585296E-04
2451904.500000000 = A.D. 2000-Dec-26 00:00:00.0000 TDB 
   8.128898188933592E-03  2.726878275963460E-03 -2.216972633018356E-03
  -1.046296815532433E-03  2.789323450103085E-03 -1.293643234160333E-03
2451909.500000000 = A.D. 2000-Dec-31 00:00:00.0000 TDB 
  -3.862472143842072E-03  8.883036111060465E-03 -4.064600300794594E-03
  -2.634264576852965E-03 -5.459292406512975E-04  5.485954141481653E-04
